GPS BIIR-2  (PRN 13)    
1 24876U 97035A   21333.93035000  .00000127  00000+0  00000+0 0  9991
2 24876  55.4865 163.4575 0055421  54.6911 305.8875  2.00562870178659
GPS BIIR-4  (PRN 20)    
1 26360U 00025A   21334.32068917 -.00000011  00000+0  00000+0 0  9994
2 26360  53.9006  87.1058 0054385 177.0702 192.4053  2.00560497157987
GPS BIIR-8  (PRN 16)    
1 27663U 03005A   21334.15099248 -.00000029  00000+0  00000+0 0  9993
2 27663  55.6537 280.9729 0122754  38.4211 185.2007  2.00576255138012
GPS BIIR-9  (PRN 21)    
1 27704U 03010A   21334.00444689 -.00000070  00000+0  00000+0 0  9998
2 27704  54.9407  31.3928 0245319 299.5001  37.7348  2.00570817136807
GPS BIIR-10 (PRN 22)    
1 28129U 03058A   21333.62235077  .00000000  00000+0  00000+0 0  9990
2 28129  53.7117  89.7665 0069382 308.6798  50.6901  2.00563456131487
GPS BIIR-11 (PRN 19)    
1 28190U 04009A   21334.31709815 -.00000043  00000+0  00000+0 0  9996
2 28190  56.1124 341.8924 0087139 114.1115  31.7290  2.00564603129655
GPS BIIR-13 (PRN 02)    
1 28474U 04045A   21334.32267490 -.00000069  00000+0  00000+0 0  9998
2 28474  55.2719  31.4449 0208012 275.5042 142.5670  2.00548507125148
GPS BIIRM-1 (PRN 17)    
1 28874U 05038A   21333.58332674 -.00000040  00000+0  00000+0 0  9998
2 28874  56.1879 339.3453 0139815 272.2928  86.5474  2.00559704118530
GPS BIIRM-2 (PRN 31)    
1 29486U 06042A   21334.32475765  .00000056  00000+0  00000+0 0  9992
2 29486  54.7406 217.1975 0103239  18.3414  71.9018  2.00565791111103
GPS BIIRM-3 (PRN 12)    
1 29601U 06052A   21334.14940313 -.00000029  00000+0  00000+0 0  9999
2 29601  55.6544 279.9035 0081863  69.8871 290.9888  2.00566933110111
GPS BIIRM-4 (PRN 15)    
1 32260U 07047A   21333.95438887  .00000115  00000+0  00000+0 0  9990
2 32260  53.2657 148.8114 0137059  60.1722 301.2198  2.00559005103513
GPS BIIRM-5 (PRN 29)    
1 32384U 07062A   21334.26785435 -.00000041  00000+0  00000+0 0  9992
2 32384  56.3002 340.0542 0016698 141.9041 217.0576  2.00578511102219
GPS BIIRM-6 (PRN 07)    
1 32711U 08012A   21333.87358640  .00000054  00000+0  00000+0 0  9995
2 32711  54.4965 216.1963 0154906 228.7691 129.9678  2.00557909100456
GPS BIIRM-8 (PRN 05)    
1 35752U 09043A   21334.27614557  .00000005  00000+0  00000+0 0  9991
2 35752  54.9238  93.5587 0057784  57.1496 249.9670  2.00569182 90060
GPS BIIF-1  (PRN 25)    
1 36585U 10022A   21334.25451372 -.00000028  00000+0  00000+0 0  9993
2 36585  54.9326 275.5571 0099278  54.4383 355.7994  2.00554903 84307
GPS BIIF-2  (PRN 01)    
1 37753U 11036A   21334.18862360 -.00000068  00000+0  00000+0 0  9996
2 37753  56.5082  36.4726 0109302  50.0052  35.7324  2.00564038 75989
GPS BIIF-3  (PRN 24)    
1 38833U 12053A   21334.05329104  .00000063  00000+0  00000+0 0  9990
2 38833  53.5486 211.5238 0119063  44.1731 316.8591  2.00559556 66147
GPS BIIF-4  (PRN 27)    
1 39166U 13023A   21333.91498048 -.00000040  00000+0  00000+0 0  9992
2 39166  55.8236 335.7830 0096178  34.7080 325.9485  2.00566942 62589
GPS BIIF-5  (PRN 30)    
1 39533U 14008A   21333.91324203  .00000051  00000+0  00000+0 0  9996
2 39533  53.6473 217.0155 0054320 204.7148 155.1052  2.00570089 56386
GPS BIIF-6  (PRN 06)    
1 39741U 14026A   21334.19069117 -.00000068  00000+0  00000+0 0  9997
2 39741  56.4738  35.9991 0026540 297.9893  61.7943  2.00569904 55240
GPS BIIF-7  (PRN 09)    
1 40105U 14045A   21334.28367090  .00000123  00000+0  00000+0 0  9996
2 40105  54.6526 154.7570 0021469 106.7147 253.5673  2.00564221 52782
GPS BIIF-8  (PRN 03)    
1 40294U 14068A   21333.65604402  .00000016  00000+0  00000+0 0  9992
2 40294  55.6690  95.8385 0036783  55.3299 305.0015  2.00557402 51904
GPS BIIF-9  (PRN 26)    
1 40534U 15013A   21333.78935088 -.00000027  00000+0  00000+0 0  9994
2 40534  53.8364 272.9664 0064643  16.2956 343.9141  2.00564627 48521
GPS BIIF-10 (PRN 08)    
1 40730U 15033A   21333.95078673 -.00000041  00000+0  00000+0 0  9997
2 40730  55.3271 334.7049 0068459   1.3600 358.6883  2.00562288 46690
GPS BIIF-11 (PRN 10)    
1 41019U 15062A   21334.00128244  .00000013  00000+0  00000+0 0  9995
2 41019  55.6602  95.6634 0073918 214.4599 145.0451  2.00563083 44539
GPS BIIF-12 (PRN 32)    
1 41328U 16007A   21333.59660303  .00000123  00000+0  00000+0 0  9990
2 41328  54.8753 155.4064 0053917 224.8512 134.7590  2.00554889 42530
GPS BIII-1  (PRN 04)    
1 43873U 18109A   21333.49702147  .00000124  00000+0  00000+0 0  9995
2 43873  55.0557 157.7869 0015658 188.6636 353.2642  2.00563318 21769
GPS BIII-2  (PRN 18)    
1 44506U 19056A   21334.27554497 -.00000069  00000+0  00000+0 0  9990
2 44506  55.5782  36.9832 0020816 182.2309 103.7846  2.00567864 16774
GPS BIII-3  (PRN 23)    
1 45854U 20041A   21334.34225751  .00000007  00000+0  00000+0 0  9990
2 45854  55.3759  94.2492 0018422 168.5494 107.0316  2.00561679 10742
GPS BIII-4  (PRN 14)    
1 46826U 20078A   21334.35875237 -.00000030  00000+0  00000+0 0  9998
2 46826  54.7051 278.1722 0012151 188.6289  69.1840  2.00566797  8212
